#aV2023  2  3  0  0  0.00000000     288 DD+AD WGS84 FIT  NGA
## 2247 432000.00000000   300.00000000 59978 0.0000000000000
+   31     1  2  3  4  5  6  7  8  9 10 11 12 13 14 15 16 17
+         18 19 20 21 22 23 24 25 26 27 29 30 31 32  0  0  0
+          0  0  0  0  0  0  0  0  0  0  0  0  0  0  0  0  0
+          0  0  0  0  0  0  0  0  0  0  0  0  0  0  0  0  0
+          0  0  0  0  0  0  0  0  0  0  0  0  0  0  0  0  0
++         2  2  2  2  2  2  2  2  2  2  2  2  2  2  2  2  2
++         2  2  2  2  2  2  2  2  2  2  2  2  2  2  0  0  0
++         0  0  0  0  0  0  0  0  0  0  0  0  0  0  0  0  0
++         0  0  0  0  0  0  0  0  0  0  0  0  0  0  0  0  0
++         0  0  0  0  0  0  0  0  0  0  0  0  0  0  0  0  0
%c cc cc ccc ccc cccc cccc cccc cccc ccccc ccccc ccccc ccccc
%c cc cc ccc ccc cccc cccc cccc cccc ccccc ccccc ccccc ccccc
%f  0.0000000  0.000000000  0.00000000000  0.000000000000000
%f  0.0000000  0.000000000  0.00000000000  0.000000000000000
%i    0    0    0    0      0      0      0      0         0
%i    0    0    0    0      0      0      0      0         0
/*      NGA, ST. LOUIS,MO.                                  
/*   EPHEMERIS COMPUTED FROM 2 DAYS OF DATA                 
/*   EPOCHA v8 SMOOTHER                                     
/*   G2139 IERS2010 SATIGS SATAPC                           
*  2023  2  3 14 55  0.00000000
P  1 -21079.919174 -14495.304140  -8100.009535    216.733816                    
V  1   9541.142786   2389.558901 -29951.928761     -0.044188                    
P  2  23188.132746  11463.125362   6085.202951   -623.255147                    
V  2  -7425.493862    477.746293  30788.508688      0.024599                    
P  3 -12409.672975 -18704.484272  14166.381879   -367.075143                    
V  3   -940.948296 -18175.367139 -24500.335186      0.035434                    
P  4 -14410.915269  -7547.939009  21022.277333    -35.308854                    
V  4  21034.681475 -16377.102654   8433.637175      0.079957                    
P  5   5425.305727  25929.884384   -578.110542   -114.488396                    
V  5  -2657.400359   1057.098954  31900.936856     -0.014632                    
P  6 -14495.913820   8741.692059  20560.683783    567.857350                    
V  6 -23711.284599 -10322.201240 -12281.178540      0.049799                    
P  7 -25489.911676  -6306.661944  -5026.769635    247.666671                    
V  7  -5348.889480  -5070.116310  30346.078953     -0.067441                    
P  8  -3814.717693 -15875.558636 -20926.636397   -106.723819                    
V  8  20979.533312 -16272.758222   8925.605248     -0.018361                    
P  9 -21224.813717   3295.647152  15577.833970   -224.935821                    
V  9  14022.034569 -14287.510562  21973.640033      0.068910                    
P 10  11986.143001 -11978.798042 -20193.550832    -23.151805                    
V 10   4926.234688  25625.585158 -12475.534826     -0.016251                    
P 11   -745.452855  15886.251555  21288.943302    -94.629285                    
V 11 -24793.034888 -10676.503404   7069.374730     -0.097106                    
P 12  10433.988363  20695.667839  12783.663471   -335.911444                    
V 12   -879.046670  16752.415306 -25741.346620     -0.045783                    
P 13  -5105.357473  18056.138363 -18895.924075    470.141026                    
V 13 -21072.348464  10867.003349  16416.462185      0.061949                    
P 14 -13865.624927   9147.379411 -20694.068646    -35.548282                    
V 14  -3930.535223 -26078.759848  -9016.412723      0.084979                    
P 15   6356.686933  15726.453970 -20836.934853     10.255836                    
V 15 -18464.500656  17780.505136   8235.822475      0.033087                    
P 16   -445.085432 -26236.062125   1549.419593   -521.598920                    
V 16   3192.842309   2171.644512  32101.132107      0.014882                    
P 17 -22874.655446  12999.508485  -3562.194595    697.679382                    
V 17   2841.370578  -4744.741411 -31604.760850      0.024094                    
P 18  24774.304432   3654.140926  -9060.647225   -125.476470                    
V 18   9758.333984   6352.472409  29090.619176     -0.156282                    
P 19 -19082.791803  17080.201137   6250.367694    272.800483                    
V 19  -8354.137968   2290.115920 -30906.276215      0.050824                    
P 20   -531.910827  24276.941305  11039.245044    452.997962                    
V 20  -6780.951575 -12444.073698  26905.039824     -0.023603                    
P 21 -16179.082475 -15367.781626 -14404.176542    153.804772                    
V 21  18700.859093   3810.805926 -23293.246872      0.001509                    
P 22  15918.210807 -18902.866086   9928.790532    419.523045                    
V 22  11405.354674  -4596.387354 -28441.976514      0.078707                    
P 23  15214.806634    780.760115 -21765.355942      4.687517                    
V 23   4566.809002  27214.635786   4027.891806      0.014435                    
P 24  18867.707107  14944.722071 -12029.591107    -58.145720                    
V 24 -14789.310070  -1670.643436 -25613.034202     -0.162621                    
P 25  14987.512822  11845.986152  18258.024607    416.973509                    
V 25   2194.490417  23690.472501 -16614.300994      0.032788                    
P 26   6207.802045 -21291.449427  14248.534187    241.142906                    
V 26   6772.170293  17459.491834  23299.402036      0.004012                    
P 27   7527.226490 -19910.973726 -15846.118746    111.180269                    
V 27  16738.139127 -10847.172348  22307.925571     -0.091733                    
P 29  19876.514412    850.057458  17588.141558   -584.085136                    
V 29 -17770.928833  13625.145845  19297.259013     -0.020932                    
P 30 -21089.606960   3922.175047 -15730.221205   -531.457973                    
V 30 -17748.347111  -9748.913591  20977.668788      0.011411                    
P 31  13389.121492 -10129.006656  20512.137148   -208.205967                    
V 31  23975.393198  10944.068400  -9713.687692     -0.010914                    
P 32  21177.814306 -15760.801333  -1476.388747   -384.790995                    
V 32    284.444502   3668.419367 -31789.043211     -0.119082                    
EOF
